{"fetched_at":"2026-03-29T02:12:04Z","count":15717,"tles":[{"name":"GPS BIIF-11 (PRN 10)","line1":"1 41019U 15062A   26086.51063787 -.00000070  00000+0  00000+0 0  9994","line2":"2 41019  56.9083  33.9579 0111316 231.5995 127.3861  2.00566923 76195","category":"GPS"}]}